CCSDS_OMM_VERS = 2.0
CREATION_DATE  = 
ORIGINATOR     = 

OBJECT_NAME    = STARLINK-36482
OBJECT_ID      = 2026-002E
CENTER_NAME    = EARTH
REF_FRAME      = TEME
TIME_SYSTEM    = UTC
MEAN_ELEMENT_THEORY = SGP/SGP4

EPOCH          = 2026-01-22T06:00:02.999808
MEAN_MOTION    = 15.75086573
ECCENTRICITY   = .00018461
INCLINATION    = 42.9992
RA_OF_ASC_NODE = 231.5350
ARG_OF_PERICENTER = 260.1139
MEAN_ANOMALY   = 354.6747

EPHEMERIS_TYPE = 0
CLASSIFICATION_TYPE = U
NORAD_CAT_ID   = 67309
ELEMENT_SET_NO = 999
REV_AT_EPOCH   = 395
BSTAR          = .22480388E-4
MEAN_MOTION_DOT = .2983E-4
MEAN_MOTION_DDOT = 0

CCSDS_OMM_VERS = 2.0
CREATION_DATE  = 
ORIGINATOR     = 

OBJECT_NAME    = STARLINK-36491
OBJECT_ID      = 2026-002F
CENTER_NAME    = EARTH
REF_FRAME      = TEME
TIME_SYSTEM    = UTC
MEAN_ELEMENT_THEORY = SGP/SGP4

EPOCH          = 2026-01-22T06:00:02.999808
MEAN_MOTION    = 15.75051311
ECCENTRICITY   = .00013537
INCLINATION    = 42.9990
RA_OF_ASC_NODE = 231.5682
ARG_OF_PERICENTER = 282.8621
MEAN_ANOMALY   = 318.5242

EPHEMERIS_TYPE = 0
CLASSIFICATION_TYPE = U
NORAD_CAT_ID   = 67310
ELEMENT_SET_NO = 999
REV_AT_EPOCH   = 395
BSTAR          = .29708976E-3
MEAN_MOTION_DOT = .45428E-3
MEAN_MOTION_DDOT = 0

CCSDS_OMM_VERS = 2.0
CREATION_DATE  = 
ORIGINATOR     = 

OBJECT_NAME    = STARLINK-36495
OBJECT_ID      = 2026-002G
CENTER_NAME    = EARTH
REF_FRAME      = TEME
TIME_SYSTEM    = UTC
MEAN_ELEMENT_THEORY = SGP/SGP4

EPOCH          = 2026-01-22T06:00:02.999808
MEAN_MOTION    = 15.75066116
ECCENTRICITY   = .00017691
INCLINATION    = 42.9991
RA_OF_ASC_NODE = 231.5535
ARG_OF_PERICENTER = 264.0390
MEAN_ANOMALY   = 343.1009

EPHEMERIS_TYPE = 0
CLASSIFICATION_TYPE = U
NORAD_CAT_ID   = 67311
ELEMENT_SET_NO = 999
REV_AT_EPOCH   = 411
BSTAR          = .10111616E-3
MEAN_MOTION_DOT = .15101E-3
MEAN_MOTION_DDOT = 0

CCSDS_OMM_VERS = 2.0
CREATION_DATE  = 
ORIGINATOR     = 

OBJECT_NAME    = STARLINK-36485
OBJECT_ID      = 2026-002H
CENTER_NAME    = EARTH
REF_FRAME      = TEME
TIME_SYSTEM    = UTC
MEAN_ELEMENT_THEORY = SGP/SGP4

EPOCH          = 2026-01-22T06:00:02.999808
MEAN_MOTION    = 15.75065961
ECCENTRICITY   = .00016651
INCLINATION    = 42.9993
RA_OF_ASC_NODE = 231.5499
ARG_OF_PERICENTER = 256.1913
MEAN_ANOMALY   = 352.8626

EPHEMERIS_TYPE = 0
CLASSIFICATION_TYPE = U
NORAD_CAT_ID   = 67312
ELEMENT_SET_NO = 999
REV_AT_EPOCH   = 395
BSTAR          = .4550974E-3
MEAN_MOTION_DOT = .70095E-3
MEAN_MOTION_DDOT = 0

CCSDS_OMM_VERS = 2.0
CREATION_DATE  = 
ORIGINATOR     = 

OBJECT_NAME    = STARLINK-36445
OBJECT_ID      = 2026-002J
CENTER_NAME    = EARTH
REF_FRAME      = TEME
TIME_SYSTEM    = UTC
MEAN_ELEMENT_THEORY = SGP/SGP4

EPOCH          = 2026-01-22T06:00:02.999808
MEAN_MOTION    = 15.75070202
ECCENTRICITY   = .00015584
INCLINATION    = 42.9991
RA_OF_ASC_NODE = 231.5430
ARG_OF_PERICENTER = 268.2941
MEAN_ANOMALY   = 342.6776

EPHEMERIS_TYPE = 0
CLASSIFICATION_TYPE = U
NORAD_CAT_ID   = 67313
ELEMENT_SET_NO = 999
REV_AT_EPOCH   = 411
BSTAR          = .20366404E-3
MEAN_MOTION_DOT = .30964E-3
MEAN_MOTION_DDOT = 0

CCSDS_OMM_VERS = 2.0
CREATION_DATE  = 
ORIGINATOR     = 

OBJECT_NAME    = STARLINK-36476
OBJECT_ID      = 2026-002K
CENTER_NAME    = EARTH
REF_FRAME      = TEME
TIME_SYSTEM    = UTC
MEAN_ELEMENT_THEORY = SGP/SGP4

EPOCH          = 2026-01-22T06:00:02.999808
MEAN_MOTION    = 15.75052240
ECCENTRICITY   = .00015766
INCLINATION    = 42.9991
RA_OF_ASC_NODE = 231.5393
ARG_OF_PERICENTER = 261.2513
MEAN_ANOMALY   = 351.6551

EPHEMERIS_TYPE = 0
CLASSIFICATION_TYPE = U
NORAD_CAT_ID   = 67314
ELEMENT_SET_NO = 999
REV_AT_EPOCH   = 395
BSTAR          = .52357391E-3
MEAN_MOTION_DOT = .80768E-3
MEAN_MOTION_DDOT = 0

CCSDS_OMM_VERS = 2.0
CREATION_DATE  = 
ORIGINATOR     = 

OBJECT_NAME    = STARLINK-36463
OBJECT_ID      = 2026-002L
CENTER_NAME    = EARTH
REF_FRAME      = TEME
TIME_SYSTEM    = UTC
MEAN_ELEMENT_THEORY = SGP/SGP4

EPOCH          = 2026-01-22T06:00:02.999808
MEAN_MOTION    = 15.75060371
ECCENTRICITY   = .00017191
INCLINATION    = 42.9992
RA_OF_ASC_NODE = 231.5298
ARG_OF_PERICENTER = 253.0613
MEAN_ANOMALY   = 3.6639

EPHEMERIS_TYPE = 0
CLASSIFICATION_TYPE = U
NORAD_CAT_ID   = 67315
ELEMENT_SET_NO = 999
REV_AT_EPOCH   = 401
BSTAR          = .49674829E-3
MEAN_MOTION_DOT = .76595E-3
MEAN_MOTION_DDOT = 0

CCSDS_OMM_VERS = 2.0
CREATION_DATE  = 
ORIGINATOR     = 

OBJECT_NAME    = STARLINK-36461
OBJECT_ID      = 2026-002M
CENTER_NAME    = EARTH
REF_FRAME      = TEME
TIME_SYSTEM    = UTC
MEAN_ELEMENT_THEORY = SGP/SGP4

EPOCH          = 2026-01-22T06:00:02.999808
MEAN_MOTION    = 15.75174610
ECCENTRICITY   = .00020245
INCLINATION    = 42.9990
RA_OF_ASC_NODE = 231.5248
ARG_OF_PERICENTER = 257.0974
MEAN_ANOMALY   = 1.5486

EPHEMERIS_TYPE = 0
CLASSIFICATION_TYPE = U
NORAD_CAT_ID   = 67316
ELEMENT_SET_NO = 999
REV_AT_EPOCH   = 411
BSTAR          = -.52922561E-3
MEAN_MOTION_DOT = -.81477E-3
MEAN_MOTION_DDOT = 0

CCSDS_OMM_VERS = 2.0
CREATION_DATE  = 
ORIGINATOR     = 

OBJECT_NAME    = STARLINK-36450
OBJECT_ID      = 2026-002N
CENTER_NAME    = EARTH
REF_FRAME      = TEME
TIME_SYSTEM    = UTC
MEAN_ELEMENT_THEORY = SGP/SGP4

EPOCH          = 2026-01-22T06:00:02.999808
MEAN_MOTION    = 15.75056770
ECCENTRICITY   = .00015789
INCLINATION    = 42.9992
RA_OF_ASC_NODE = 231.5194
ARG_OF_PERICENTER = 265.1208
MEAN_ANOMALY   = 355.4442

EPHEMERIS_TYPE = 0
CLASSIFICATION_TYPE = U
NORAD_CAT_ID   = 67317
ELEMENT_SET_NO = 999
REV_AT_EPOCH   = 411
BSTAR          = .279196E-3
MEAN_MOTION_DOT = .4266E-3
MEAN_MOTION_DDOT = 0

CCSDS_OMM_VERS = 2.0
CREATION_DATE  = 
ORIGINATOR     = 

OBJECT_NAME    = STARLINK-36498
OBJECT_ID      = 2026-002P
CENTER_NAME    = EARTH
REF_FRAME      = TEME
TIME_SYSTEM    = UTC
MEAN_ELEMENT_THEORY = SGP/SGP4

EPOCH          = 2026-01-22T06:00:02.999808
MEAN_MOTION    = 15.75060036
ECCENTRICITY   = .00017454
INCLINATION    = 42.9991
RA_OF_ASC_NODE = 231.5094
ARG_OF_PERICENTER = 256.4926
MEAN_ANOMALY   = 7.9076

EPHEMERIS_TYPE = 0
CLASSIFICATION_TYPE = U
NORAD_CAT_ID   = 67318
ELEMENT_SET_NO = 999
REV_AT_EPOCH   = 401
BSTAR          = .24695602E-3
MEAN_MOTION_DOT = .37662E-3
MEAN_MOTION_DDOT = 0

CCSDS_OMM_VERS = 2.0
CREATION_DATE  = 
ORIGINATOR     = 

OBJECT_NAME    = STARLINK-36470
OBJECT_ID      = 2026-002Q
CENTER_NAME    = EARTH
REF_FRAME      = TEME
TIME_SYSTEM    = UTC
MEAN_ELEMENT_THEORY = SGP/SGP4

EPOCH          = 2026-01-22T06:00:02.999808
MEAN_MOTION    = 15.75064827
ECCENTRICITY   = .00015142
INCLINATION    = 42.9992
RA_OF_ASC_NODE = 231.5150
ARG_OF_PERICENTER = 274.3167
MEAN_ANOMALY   = 348.1579

EPHEMERIS_TYPE = 0
CLASSIFICATION_TYPE = U
NORAD_CAT_ID   = 67319
ELEMENT_SET_NO = 999
REV_AT_EPOCH   = 401
BSTAR          = .47726636E-3
MEAN_MOTION_DOT = .73559E-3
MEAN_MOTION_DDOT = 0

CCSDS_OMM_VERS = 2.0
CREATION_DATE  = 
ORIGINATOR     = 

OBJECT_NAME    = STARLINK-36500
OBJECT_ID      = 2026-002R
CENTER_NAME    = EARTH
REF_FRAME      = TEME
TIME_SYSTEM    = UTC
MEAN_ELEMENT_THEORY = SGP/SGP4

EPOCH          = 2026-01-22T06:00:02.999808
MEAN_MOTION    = 15.75057718
ECCENTRICITY   = .00015709
INCLINATION    = 42.9993
RA_OF_ASC_NODE = 231.5054
ARG_OF_PERICENTER = 284.4102
MEAN_ANOMALY   = 341.8993

EPHEMERIS_TYPE = 0
CLASSIFICATION_TYPE = U
NORAD_CAT_ID   = 67320
ELEMENT_SET_NO = 999
REV_AT_EPOCH   = 401
BSTAR          = .23591098E-3
MEAN_MOTION_DOT = .35944E-3
MEAN_MOTION_DDOT = 0

CCSDS_OMM_VERS = 2.0
CREATION_DATE  = 
ORIGINATOR     = 

OBJECT_NAME    = STARLINK-36462
OBJECT_ID      = 2026-002S
CENTER_NAME    = EARTH
REF_FRAME      = TEME
TIME_SYSTEM    = UTC
MEAN_ELEMENT_THEORY = SGP/SGP4

EPOCH          = 2026-01-22T06:00:02.999808
MEAN_MOTION    = 15.75031664
ECCENTRICITY   = .00015847
INCLINATION    = 42.9992
RA_OF_ASC_NODE = 231.4956
ARG_OF_PERICENTER = 256.9161
MEAN_ANOMALY   = 13.2166

EPHEMERIS_TYPE = 0
CLASSIFICATION_TYPE = U
NORAD_CAT_ID   = 67321
ELEMENT_SET_NO = 999
REV_AT_EPOCH   = 395
BSTAR          = .50894888E-3
MEAN_MOTION_DOT = .78406E-3
MEAN_MOTION_DDOT = 0

CCSDS_OMM_VERS = 2.0
CREATION_DATE  = 
ORIGINATOR     = 

OBJECT_NAME    = STARLINK-36434
OBJECT_ID      = 2026-002T
CENTER_NAME    = EARTH
REF_FRAME      = TEME
TIME_SYSTEM    = UTC
MEAN_ELEMENT_THEORY = SGP/SGP4

EPOCH          = 2026-01-22T06:00:02.999808
MEAN_MOTION    = 15.75037012
ECCENTRICITY   = .00016237
INCLINATION    = 42.9992
RA_OF_ASC_NODE = 231.5004
ARG_OF_PERICENTER = 258.8181
MEAN_ANOMALY   = 9.3967

EPHEMERIS_TYPE = 0
CLASSIFICATION_TYPE = U
NORAD_CAT_ID   = 67322
ELEMENT_SET_NO = 999
REV_AT_EPOCH   = 395
BSTAR          = .44445256E-3
MEAN_MOTION_DOT = .68343E-3
MEAN_MOTION_DDOT = 0

CCSDS_OMM_VERS = 2.0
CREATION_DATE  = 
ORIGINATOR     = 

OBJECT_NAME    = STARLINK-36497
OBJECT_ID      = 2026-002U
CENTER_NAME    = EARTH
REF_FRAME      = TEME
TIME_SYSTEM    = UTC
MEAN_ELEMENT_THEORY = SGP/SGP4

EPOCH          = 2026-01-22T06:00:02.999808
MEAN_MOTION    = 15.75054124
ECCENTRICITY   = .00016243
INCLINATION    = 42.9993
RA_OF_ASC_NODE = 231.4908
ARG_OF_PERICENTER = 255.2609
MEAN_ANOMALY   = 16.8100

EPHEMERIS_TYPE = 0
CLASSIFICATION_TYPE = U
NORAD_CAT_ID   = 67323
ELEMENT_SET_NO = 999
REV_AT_EPOCH   = 401
BSTAR          = .55198366E-3
MEAN_MOTION_DOT = .85229E-3
MEAN_MOTION_DDOT = 0

